{
  "links" : {
    "next" : "https://api.nasa.gov/neo/rest/v1/feed?start_date=2005-05-23&end_date=2005-05-23&detailed=true&api_key=t0TVs3DtDT2H8Oy2Zy8m2eVrNsAVKAexjcZXUckd",
    "prev" : "https://api.nasa.gov/neo/rest/v1/feed?start_date=2005-05-21&end_date=2005-05-21&detailed=true&api_key=t0TVs3DtDT2H8Oy2Zy8m2eVrNsAVKAexjcZXUckd",
    "self" : "https://api.nasa.gov/neo/rest/v1/feed?start_date=2005-05-22&end_date=2005-05-22&detailed=true&api_key=t0TVs3DtDT2H8Oy2Zy8m2eVrNsAVKAexjcZXUckd"
  },
  "element_count" : 4,
  "near_earth_objects" : {
    "2005-05-22" : [ {
      "links" : {
        "self" : "https://api.nasa.gov/neo/rest/v1/neo/3297180?api_key=t0TVs3DtDT2H8Oy2Zy8m2eVrNsAVKAexjcZXUckd"
      },
      "neo_reference_id" : "3297180",
      "name" : "(2005 UC1)",
      "nasa_jpl_url" : "http://ssd.jpl.nasa.gov/sbdb.cgi?sstr=3297180",
      "absolute_magnitude_h" : 21.8,
      "estimated_diameter" : {
        "kilometers" : {
          "estimated_diameter_min" : 0.1160259082,
          "estimated_diameter_max" : 0.2594418179
        },
        "meters" : {
          "estimated_diameter_min" : 116.0259082094,
          "estimated_diameter_max" : 259.4418179074
        },
        "miles" : {
          "estimated_diameter_min" : 0.0720951346,
          "estimated_diameter_max" : 0.1612096218
        },
        "feet" : {
          "estimated_diameter_min" : 380.6624406898,
          "estimated_diameter_max" : 851.1870938635
        }
      },
      "is_potentially_hazardous_asteroid" : false,
      "close_approach_data" : [ {
        "close_approach_date" : "2005-05-22",
        "epoch_date_close_approach" : 1116745200000,
        "relative_velocity" : {
          "kilometers_per_second" : "15.897170497",
          "kilometers_per_hour" : "57229.8137892655",
          "miles_per_hour" : "35560.38068478"
        },
        "miss_distance" : {
          "astronomical" : "0.4623165743",
          "lunar" : "179.8411407471",
          "kilometers" : "69161576",
          "miles" : "42975012"
        },
        "orbiting_body" : "Earth"
      } ],
      "orbital_data" : {
        "orbit_id" : "8",
        "orbit_determination_date" : "2017-04-06 09:10:10",
        "orbit_uncertainty" : "9",
        "minimum_orbit_intersection" : ".288424",
        "jupiter_tisserand_invariant" : "4.525",
        "epoch_osculation" : "2453668.5",
        "eccentricity" : ".2411813248021237",
        "semi_major_axis" : "1.460894484145077",
        "inclination" : "20.57514222763362",
        "ascending_node_longitude" : "210.4540292695406",
        "orbital_period" : "644.9509708892665",
        "perihelion_distance" : "1.108554017062852",
        "perihelion_argument" : "89.35179859620757",
        "aphelion_distance" : "1.813234951227302",
        "perihelion_time" : "2453555.710419200773",
        "mean_anomaly" : "62.95710979663473",
        "mean_motion" : ".5581819645974444",
        "equinox" : "J2000"
      }
    }, {
      "links" : {
        "self" : "https://api.nasa.gov/neo/rest/v1/neo/3267371?api_key=t0TVs3DtDT2H8Oy2Zy8m2eVrNsAVKAexjcZXUckd"
      },
      "neo_reference_id" : "3267371",
      "name" : "(2005 CV38)",
      "nasa_jpl_url" : "http://ssd.jpl.nasa.gov/sbdb.cgi?sstr=3267371",
      "absolute_magnitude_h" : 20.2,
      "estimated_diameter" : {
        "kilometers" : {
          "estimated_diameter_min" : 0.2424124811,
          "estimated_diameter_max" : 0.5420507863
        },
        "meters" : {
          "estimated_diameter_min" : 242.4124811008,
          "estimated_diameter_max" : 542.0507863358
        },
        "miles" : {
          "estimated_diameter_min" : 0.1506280858,
          "estimated_diameter_max" : 0.3368146392
        },
        "feet" : {
          "estimated_diameter_min" : 795.3165644948,
          "estimated_diameter_max" : 1778.3819018419
        }
      },
      "is_potentially_hazardous_asteroid" : false,
      "close_approach_data" : [ {
        "close_approach_date" : "2005-05-22",
        "epoch_date_close_approach" : 1116745200000,
        "relative_velocity" : {
          "kilometers_per_second" : "10.472189048",
          "kilometers_per_hour" : "37699.8805728198",
          "miles_per_hour" : "23425.2396814835"
        },
        "miss_distance" : {
          "astronomical" : "0.3073474885",
          "lunar" : "119.5581665039",
          "kilometers" : "45978528",
          "miles" : "28569734"
        },
        "orbiting_body" : "Earth"
      } ],
      "orbital_data" : {
        "orbit_id" : "15",
        "orbit_determination_date" : "2017-04-06 09:11:27",
        "orbit_uncertainty" : "1",
        "minimum_orbit_intersection" : ".165096",
        "jupiter_tisserand_invariant" : "3.814",
        "epoch_osculation" : "2458000.5",
        "eccentricity" : ".4363923027297718",
        "semi_major_axis" : "1.890265420385477",
        "inclination" : "11.87135491583857",
        "ascending_node_longitude" : "146.4658278990258",
        "orbital_period" : "949.254383500167",
        "perihelion_distance" : "1.065368140812998",
        "perihelion_argument" : "62.7929313018652",
        "aphelion_distance" : "2.715162699957955",
        "perihelion_time" : "2458240.050526466794",
        "mean_anomaly" : "269.1516552074678",
        "mean_motion" : ".3792450224697189",
        "equinox" : "J2000"
      }
    }, {
      "links" : {
        "self" : "https://api.nasa.gov/neo/rest/v1/neo/3275443?api_key=t0TVs3DtDT2H8Oy2Zy8m2eVrNsAVKAexjcZXUckd"
      },
      "neo_reference_id" : "3275443",
      "name" : "(2005 FL4)",
      "nasa_jpl_url" : "http://ssd.jpl.nasa.gov/sbdb.cgi?sstr=3275443",
      "absolute_magnitude_h" : 16.9,
      "estimated_diameter" : {
        "kilometers" : {
          "estimated_diameter_min" : 1.1080388213,
          "estimated_diameter_max" : 2.4776501261
        },
        "meters" : {
          "estimated_diameter_min" : 1108.0388212642,
          "estimated_diameter_max" : 2477.6501260554
        },
        "miles" : {
          "estimated_diameter_min" : 0.6885031904,
          "estimated_diameter_max" : 1.5395399365
        },
        "feet" : {
          "estimated_diameter_min" : 3635.2980863563,
          "estimated_diameter_max" : 8128.7736395675
        }
      },
      "is_potentially_hazardous_asteroid" : false,
      "close_approach_data" : [ {
        "close_approach_date" : "2005-05-22",
        "epoch_date_close_approach" : 1116745200000,
        "relative_velocity" : {
          "kilometers_per_second" : "23.4593114647",
          "kilometers_per_hour" : "84453.5212730449",
          "miles_per_hour" : "52476.1338154651"
        },
        "miss_distance" : {
          "astronomical" : "0.2573927976",
          "lunar" : "100.125793457",
          "kilometers" : "38505416",
          "miles" : "23926156"
        },
        "orbiting_body" : "Earth"
      } ],
      "orbital_data" : {
        "orbit_id" : "20",
        "orbit_determination_date" : "2017-04-06 09:11:12",
        "orbit_uncertainty" : "2",
        "minimum_orbit_intersection" : ".274656",
        "jupiter_tisserand_invariant" : "2.833",
        "epoch_osculation" : "2458000.5",
        "eccentricity" : ".7216346013666495",
        "semi_major_axis" : "2.649150052487693",
        "inclination" : "28.46082457354857",
        "ascending_node_longitude" : "66.78196213734721",
        "orbital_period" : "1574.919151407827",
        "perihelion_distance" : ".7374317104002982",
        "perihelion_argument" : "176.8389666874359",
        "aphelion_distance" : "4.560868394575088",
        "perihelion_time" : "2458267.766054505190",
        "mean_anomaly" : "298.9074800850186",
        "mean_motion" : ".2285831623027725",
        "equinox" : "J2000"
      }
    }, {
      "links" : {
        "self" : "https://api.nasa.gov/neo/rest/v1/neo/3772846?api_key=t0TVs3DtDT2H8Oy2Zy8m2eVrNsAVKAexjcZXUckd"
      },
      "neo_reference_id" : "3772846",
      "name" : "(2017 FS91)",
      "nasa_jpl_url" : "http://ssd.jpl.nasa.gov/sbdb.cgi?sstr=3772846",
      "absolute_magnitude_h" : 26.286,
      "estimated_diameter" : {
        "kilometers" : {
          "estimated_diameter_min" : 0.0147012742,
          "estimated_diameter_max" : 0.0328730484
        },
        "meters" : {
          "estimated_diameter_min" : 14.7012741569,
          "estimated_diameter_max" : 32.8730483706
        },
        "miles" : {
          "estimated_diameter_min" : 0.0091349454,
          "estimated_diameter_max" : 0.0204263589
        },
        "feet" : {
          "estimated_diameter_min" : 48.2325283048,
          "estimated_diameter_max" : 107.8512120163
        }
      },
      "is_potentially_hazardous_asteroid" : false,
      "close_approach_data" : [ {
        "close_approach_date" : "2005-05-22",
        "epoch_date_close_approach" : 1116745200000,
        "relative_velocity" : {
          "kilometers_per_second" : "6.0473887069",
          "kilometers_per_hour" : "21770.5993446866",
          "miles_per_hour" : "13527.4037983693"
        },
        "miss_distance" : {
          "astronomical" : "0.1508953996",
          "lunar" : "58.6983108521",
          "kilometers" : "22573632",
          "miles" : "14026604"
        },
        "orbiting_body" : "Earth"
      } ],
      "orbital_data" : {
        "orbit_id" : "9",
        "orbit_determination_date" : "2017-04-06 08:19:04",
        "orbit_uncertainty" : "5",
        "minimum_orbit_intersection" : ".0103874",
        "jupiter_tisserand_invariant" : "6.550",
        "epoch_osculation" : "2458000.5",
        "eccentricity" : ".2821243965557702",
        "semi_major_axis" : ".9048473079782318",
        "inclination" : "2.539145967632703",
        "ascending_node_longitude" : "16.77862332587374",
        "orbital_period" : "314.3846801362703",
        "perihelion_distance" : ".64956780723976",
        "perihelion_argument" : "40.82955263155544",
        "aphelion_distance" : "1.160126808716703",
        "perihelion_time" : "2458066.910899571277",
        "mean_anomaly" : "283.9532796722262",
        "mean_motion" : "1.145093965278326",
        "equinox" : "J2000"
      }
    } ]
  }
}